[{"OBJECT_NAME":"STARLINK-3647","OBJECT_ID":"2022-025AQ","EPOCH":"2026-03-09T06:25:17.884704","MEAN_MOTION":15.08838218,"ECCENTRICITY":0.00015444,"INCLINATION":53.2185,"RA_OF_ASC_NODE":21.0125,"ARG_OF_PERICENTER":111.2263,"MEAN_ANOMALY":248.8895,"EPHEMERIS_TYPE":0,"CLASSIFICATION_TYPE":"U","NORAD_CAT_ID":51994,"ELEMENT_SET_NO":999,"REV_AT_EPOCH":22085,"BSTAR":4.7614974e-5,"MEAN_MOTION_DOT":4.7e-6,"MEAN_MOTION_DDOT":0},{"OBJECT_NAME":"SL-6 R\/B(2)","OBJECT_ID":"1990-055D","EPOCH":"2026-03-09T21:41:59.551872","MEAN_MOTION":15.03595553,"ECCENTRICITY":0.00247741,"INCLINATION":62.7825,"RA_OF_ASC_NODE":253.121,"ARG_OF_PERICENTER":347.1508,"MEAN_ANOMALY":12.8957,"EPHEMERIS_TYPE":0,"CLASSIFICATION_TYPE":"U","NORAD_CAT_ID":20666,"ELEMENT_SET_NO":999,"REV_AT_EPOCH":93822,"BSTAR":0.00020900577,"MEAN_MOTION_DOT":2.688e-5,"MEAN_MOTION_DDOT":0}]
